[{"OBJECT_NAME":"FUNCUBE-1 (AO-73)","OBJECT_ID":"2013-066AE","EPOCH":"2026-03-09T21:45:20.354112","MEAN_MOTION":15.07917828,"ECCENTRICITY":0.00373117,"INCLINATION":97.8195,"RA_OF_ASC_NODE":38.4486,"ARG_OF_PERICENTER":178.1154,"MEAN_ANOMALY":182.0221,"EPHEMERIS_TYPE":0,"CLASSIFICATION_TYPE":"U","NORAD_CAT_ID":39444,"ELEMENT_SET_NO":999,"REV_AT_EPOCH":66469,"BSTAR":0.00061714882,"MEAN_MOTION_DOT":9.564e-5,"MEAN_MOTION_DDOT":0},{"OBJECT_NAME":"STARLINK-34498","OBJECT_ID":"2025-129K","EPOCH":"2026-03-09T09:45:49.316256","MEAN_MOTION":14.98328884,"ECCENTRICITY":0.00035194,"INCLINATION":70.0007,"RA_OF_ASC_NODE":75.2252,"ARG_OF_PERICENTER":269.6589,"MEAN_ANOMALY":90.4167,"EPHEMERIS_TYPE":0,"CLASSIFICATION_TYPE":"U","NORAD_CAT_ID":64421,"ELEMENT_SET_NO":999,"REV_AT_EPOCH":4124,"BSTAR":0.00015562698,"MEAN_MOTION_DOT":1.764e-5,"MEAN_MOTION_DDOT":0}]
